<?xml version="1.0"?>
<gpx xmlns="http://www.topografix.com/GPX/1/1" xmlns:gpxx="http://www.garmin.com/xmlschemas/GpxExtensions/v3" version="1.1" creator="CALTOPO"><metadata><name><![CDATA[North Cascades High Route]]></name></metadata><wpt lat="48.32178870282632" lon="-120.67932128906251"><name>End</name><desc>End</desc></wpt><wpt lat="48.97007612894399" lon="-121.10298156738283"><name>Start</name><desc>Start</desc></wpt><trk><extensions><gpxx:TrackExtension><gpxx:DisplayColor>Red</gpxx:DisplayColor></gpxx:TrackExtension></extensions><trkseg><trkpt lat="48.97003387105985" lon="-121.10319614410402"/><trkpt lat="48.96635729803495" lon="-121.10798120498657"/><trkpt lat="48.968836549458516" lon="-121.13079071044923"/><trkpt lat="48.98247022887956" lon="-121.19739532470705"/><trkpt lat="48.989482797322175" lon="-121.22314453125"/><trkpt lat="48.981315454309225" lon="-121.2409543991089"/><trkpt lat="48.95339556830784" lon="-121.26296997070314"/><trkpt lat="48.950746452515894" lon="-121.28683090209962"/><trkpt lat="48.94747713700047" lon="-121.29026412963869"/><trkpt lat="48.92689808025723" lon="-121.30897521972656"/><trkpt lat="48.90185348845558" lon="-121.33592605590822"/><trkpt lat="48.8936153614802" lon="-121.34270668029787"/><trkpt lat="48.89085020634326" lon="-121.33386611938478"/><trkpt lat="48.88689971942319" lon="-121.33807182312013"/><trkpt lat="48.880578291142996" lon="-121.34905815124513"/><trkpt lat="48.87261892829001" lon="-121.36459350585939"/><trkpt lat="48.867086142850255" lon="-121.37017250061037"/><trkpt lat="48.86059280829702" lon="-121.36322021484376"/><trkpt lat="48.85754347355922" lon="-121.34862899780275"/><trkpt lat="48.85330797824286" lon="-121.34159088134767"/><trkpt lat="48.858672878455494" lon="-121.32142066955568"/><trkpt lat="48.85443747869951" lon="-121.30846023559572"/><trkpt lat="48.8413337066754" lon="-121.33695602416994"/><trkpt lat="48.826757381274426" lon="-121.33472442626955"/><trkpt lat="48.81873294305852" lon="-121.32802963256837"/><trkpt lat="48.82404503886193" lon="-121.30760192871095"/><trkpt lat="48.820767429248825" lon="-121.28768920898438"/><trkpt lat="48.81658534027002" lon="-121.28296852111818"/><trkpt lat="48.815568022624426" lon="-121.2912940979004"/><trkpt lat="48.81082026730451" lon="-121.30313873291017"/><trkpt lat="48.79595236384026" lon="-121.30691528320314"/><trkpt lat="48.785038892908275" lon="-121.31266593933107"/><trkpt lat="48.77813899763618" lon="-121.31335258483888"/><trkpt lat="48.77870459851086" lon="-121.28485679626466"/><trkpt lat="48.7879795435691" lon="-121.24863624572755"/><trkpt lat="48.79499116898868" lon="-121.19207382202148"/><trkpt lat="48.748945343432936" lon="-121.1290740966797"/><trkpt lat="48.73151158582936" lon="-121.13044738769533"/><trkpt lat="48.72018772585415" lon="-121.14383697509767"/><trkpt lat="48.713675351757644" lon="-121.1397171020508"/><trkpt lat="48.71571409864643" lon="-121.1327648162842"/><trkpt lat="48.71556114162341" lon="-121.13254604548712"/><trkpt lat="48.71554" lon="-121.13258"/><trkpt lat="48.71541" lon="-121.13283"/><trkpt lat="48.71541" lon="-121.13283"/><trkpt lat="48.71472" lon="-121.1323"/><trkpt lat="48.7146" lon="-121.13216"/><trkpt lat="48.71438" lon="-121.13179"/><trkpt lat="48.71421" lon="-121.13161"/><trkpt lat="48.71403" lon="-121.13148"/><trkpt lat="48.71383" lon="-121.1314"/><trkpt lat="48.71365" lon="-121.13139"/><trkpt lat="48.71345" lon="-121.13144"/><trkpt lat="48.71317" lon="-121.1316"/><trkpt lat="48.713" lon="-121.13178"/><trkpt lat="48.71254" lon="-121.1325"/><trkpt lat="48.71254" lon="-121.1325"/><trkpt lat="48.7125" lon="-121.13261"/><trkpt lat="48.71248" lon="-121.13278"/><trkpt lat="48.71247" lon="-121.13345"/><trkpt lat="48.71216" lon="-121.13416"/><trkpt lat="48.712" lon="-121.13438"/><trkpt lat="48.71169" lon="-121.13468"/><trkpt lat="48.7115" lon="-121.13497"/><trkpt lat="48.71118" lon="-121.13525"/><trkpt lat="48.71118" lon="-121.13525"/><trkpt lat="48.71091" lon="-121.13549"/><trkpt lat="48.71064" lon="-121.1356"/><trkpt lat="48.71055" lon="-121.13555"/><trkpt lat="48.71047" lon="-121.13528"/><trkpt lat="48.71046759770973" lon="-121.13527354012541"/><trkpt lat="48.70933" lon="-121.1361"/><trkpt lat="48.7089" lon="-121.13654"/><trkpt lat="48.7084" lon="-121.13718"/><trkpt lat="48.70822" lon="-121.13744"/><trkpt lat="48.70813" lon="-121.13761"/><trkpt lat="48.70805" lon="-121.13778"/><trkpt lat="48.70795" lon="-121.13812"/><trkpt lat="48.70794" lon="-121.1385"/><trkpt lat="48.70796" lon="-121.13868"/><trkpt lat="48.708" lon="-121.13886"/><trkpt lat="48.70825" lon="-121.13956"/><trkpt lat="48.70892" lon="-121.14071"/><trkpt lat="48.70914" lon="-121.14104"/><trkpt lat="48.70934" lon="-121.14127"/><trkpt lat="48.71011" lon="-121.14185"/><trkpt lat="48.7102" lon="-121.14194"/><trkpt lat="48.71034" lon="-121.14215"/><trkpt lat="48.71044" lon="-121.14242"/><trkpt lat="48.71047" lon="-121.14254"/><trkpt lat="48.71049" lon="-121.14281"/><trkpt lat="48.71048" lon="-121.14308"/><trkpt lat="48.71044" lon="-121.14334"/><trkpt lat="48.71035" lon="-121.14363"/><trkpt lat="48.70996675705584" lon="-121.14466110601643"/><trkpt lat="48.709966757195815" lon="-121.14466110601643"/><trkpt lat="48.70993" lon="-121.14476"/><trkpt lat="48.70983640506312" lon="-121.14508398247382"/><trkpt lat="48.70983" lon="-121.14508"/><trkpt lat="48.70974" lon="-121.14503"/><trkpt lat="48.70967" lon="-121.14491"/><trkpt lat="48.70962" lon="-121.14453"/><trkpt lat="48.70966" lon="-121.14437"/><trkpt lat="48.70965" lon="-121.14435"/><trkpt lat="48.70949" lon="-121.14435"/><trkpt lat="48.70942" lon="-121.14422"/><trkpt lat="48.70931" lon="-121.14363"/><trkpt lat="48.70935" lon="-121.14332"/><trkpt lat="48.70928" lon="-121.14317"/><trkpt lat="48.70924" lon="-121.14285"/><trkpt lat="48.70918" lon="-121.14271"/><trkpt lat="48.70916" lon="-121.14259"/><trkpt lat="48.70909" lon="-121.14239"/><trkpt lat="48.70897" lon="-121.1423"/><trkpt lat="48.70886" lon="-121.14234"/><trkpt lat="48.70877" lon="-121.1425"/><trkpt lat="48.70855" lon="-121.1425"/><trkpt lat="48.70842" lon="-121.14254"/><trkpt lat="48.70835" lon="-121.14252"/><trkpt lat="48.70814" lon="-121.14237"/><trkpt lat="48.70806" lon="-121.14207"/><trkpt lat="48.7079" lon="-121.14201"/><trkpt lat="48.7079" lon="-121.14198"/><trkpt lat="48.70797" lon="-121.14187"/><trkpt lat="48.70799" lon="-121.14168"/><trkpt lat="48.70795" lon="-121.1414"/><trkpt lat="48.7079" lon="-121.1413"/><trkpt lat="48.70787" lon="-121.14131"/><trkpt lat="48.70784" lon="-121.14141"/><trkpt lat="48.70779" lon="-121.14142"/><trkpt lat="48.70772" lon="-121.14126"/><trkpt lat="48.70759" lon="-121.14116"/><trkpt lat="48.70717" lon="-121.14103"/><trkpt lat="48.70682" lon="-121.14085"/><trkpt lat="48.70655" lon="-121.14078"/><trkpt lat="48.7064" lon="-121.14064"/><trkpt lat="48.70617" lon="-121.14036"/><trkpt lat="48.70605" lon="-121.14027"/><trkpt lat="48.70603" lon="-121.14021"/><trkpt lat="48.70604" lon="-121.14013"/><trkpt lat="48.70607" lon="-121.14006"/><trkpt lat="48.70622" lon="-121.13995"/><trkpt lat="48.7063" lon="-121.13994"/><trkpt lat="48.70637" lon="-121.13988"/><trkpt lat="48.70638" lon="-121.13975"/><trkpt lat="48.70631" lon="-121.13964"/><trkpt lat="48.70598" lon="-121.13944"/><trkpt lat="48.70594" lon="-121.13939"/><trkpt lat="48.70593" lon="-121.13901"/><trkpt lat="48.70584" lon="-121.13885"/><trkpt lat="48.70578" lon="-121.1388"/><trkpt lat="48.70562" lon="-121.13883"/><trkpt lat="48.70554" lon="-121.13877"/><trkpt lat="48.70546" lon="-121.13876"/><trkpt lat="48.70546" lon="-121.13876"/><trkpt lat="48.70529" lon="-121.13876"/><trkpt lat="48.70502" lon="-121.13861"/><trkpt lat="48.70469" lon="-121.13822"/><trkpt lat="48.7046" lon="-121.13806"/><trkpt lat="48.70457" lon="-121.13791"/><trkpt lat="48.70455" lon="-121.13762"/><trkpt lat="48.70429" lon="-121.13726"/><trkpt lat="48.70383" lon="-121.13688"/><trkpt lat="48.70367" lon="-121.13667"/><trkpt lat="48.70357" lon="-121.13646"/><trkpt lat="48.70344" lon="-121.13588"/><trkpt lat="48.70333" lon="-121.13558"/><trkpt lat="48.70322" lon="-121.1354"/><trkpt lat="48.70308" lon="-121.13525"/><trkpt lat="48.70308" lon="-121.13525"/><trkpt lat="48.70275" lon="-121.13499"/><trkpt lat="48.70253" lon="-121.13492"/><trkpt lat="48.70237" lon="-121.13495"/><trkpt lat="48.70225" lon="-121.13502"/><trkpt lat="48.70215" lon="-121.13501"/><trkpt lat="48.70204" lon="-121.13493"/><trkpt lat="48.70195" lon="-121.1349"/><trkpt lat="48.70188" lon="-121.13491"/><trkpt lat="48.70178" lon="-121.135"/><trkpt lat="48.70154" lon="-121.13525"/><trkpt lat="48.70154" lon="-121.13525"/><trkpt lat="48.70135" lon="-121.13539"/><trkpt lat="48.7011" lon="-121.1355"/><trkpt lat="48.70103" lon="-121.13558"/><trkpt lat="48.70095" lon="-121.13562"/><trkpt lat="48.70081" lon="-121.13556"/><trkpt lat="48.7007" lon="-121.13525"/><trkpt lat="48.7007" lon="-121.13525"/><trkpt lat="48.70063" lon="-121.13506"/><trkpt lat="48.70056" lon="-121.13502"/><trkpt lat="48.70041" lon="-121.13498"/><trkpt lat="48.70036" lon="-121.13489"/><trkpt lat="48.70024" lon="-121.13458"/><trkpt lat="48.70009" lon="-121.13407"/><trkpt lat="48.69987" lon="-121.13317"/><trkpt lat="48.69985" lon="-121.13299"/><trkpt lat="48.69989" lon="-121.13261"/><trkpt lat="48.69983" lon="-121.13264"/><trkpt lat="48.69967" lon="-121.13278"/><trkpt lat="48.69959" lon="-121.13279"/><trkpt lat="48.69956" lon="-121.13277"/><trkpt lat="48.69955" lon="-121.13266"/><trkpt lat="48.69956" lon="-121.13246"/><trkpt lat="48.69956" lon="-121.13237"/><trkpt lat="48.69954" lon="-121.13234"/><trkpt lat="48.69951" lon="-121.13233"/><trkpt lat="48.69937" lon="-121.13242"/><trkpt lat="48.69921" lon="-121.13237"/><trkpt lat="48.69897" lon="-121.13235"/><trkpt lat="48.69896" lon="-121.13184"/><trkpt lat="48.69892" lon="-121.13162"/><trkpt lat="48.69825" lon="-121.13006"/><trkpt lat="48.69804" lon="-121.12965"/><trkpt lat="48.69788" lon="-121.12948"/><trkpt lat="48.69775" lon="-121.12938"/><trkpt lat="48.69759" lon="-121.12932"/><trkpt lat="48.69741" lon="-121.12914"/><trkpt lat="48.69723" lon="-121.12889"/><trkpt lat="48.69704" lon="-121.12874"/><trkpt lat="48.69688" lon="-121.12868"/><trkpt lat="48.69672" lon="-121.12854"/><trkpt lat="48.6966" lon="-121.12834"/><trkpt lat="48.69634" lon="-121.1278"/><trkpt lat="48.6962" lon="-121.12766"/><trkpt lat="48.69602" lon="-121.12755"/><trkpt lat="48.69582" lon="-121.12752"/><trkpt lat="48.69552" lon="-121.12752"/><trkpt lat="48.69544" lon="-121.12756"/><trkpt lat="48.69544" lon="-121.12774"/><trkpt lat="48.69541" lon="-121.12785"/><trkpt lat="48.69527" lon="-121.12785"/><trkpt lat="48.69515" lon="-121.1277"/><trkpt lat="48.69498" lon="-121.12726"/><trkpt lat="48.69477" lon="-121.12687"/><trkpt lat="48.69468" lon="-121.12672"/><trkpt lat="48.69455" lon="-121.12659"/><trkpt lat="48.69452" lon="-121.12649"/><trkpt lat="48.69453" lon="-121.12638"/><trkpt lat="48.69466" lon="-121.12619"/><trkpt lat="48.69475" lon="-121.12602"/><trkpt lat="48.69484" lon="-121.12576"/><trkpt lat="48.69501" lon="-121.12543"/><trkpt lat="48.69523" lon="-121.12528"/><trkpt lat="48.69553" lon="-121.12515"/><trkpt lat="48.69558" lon="-121.12507"/><trkpt lat="48.69565" lon="-121.12476"/><trkpt lat="48.69565" lon="-121.12467"/><trkpt lat="48.69533" lon="-121.12405"/><trkpt lat="48.69518659202527" lon="-121.12366279971799"/><trkpt lat="48.69519" lon="-121.12366"/><trkpt lat="48.69491" lon="-121.12389"/><trkpt lat="48.69484" lon="-121.12391"/><trkpt lat="48.69468" lon="-121.12385"/><trkpt lat="48.69458" lon="-121.12384"/><trkpt lat="48.69439" lon="-121.12391"/><trkpt lat="48.69421" lon="-121.12356"/><trkpt lat="48.69435" lon="-121.12265"/><trkpt lat="48.69447" lon="-121.1224"/><trkpt lat="48.69443" lon="-121.12211"/><trkpt lat="48.69448" lon="-121.12203"/><trkpt lat="48.69445" lon="-121.12192"/><trkpt lat="48.69433" lon="-121.12186"/><trkpt lat="48.69425" lon="-121.1219"/><trkpt lat="48.69421" lon="-121.12179"/><trkpt lat="48.69391" lon="-121.12197"/><trkpt lat="48.69379" lon="-121.12201"/><trkpt lat="48.69365" lon="-121.12188"/><trkpt lat="48.69354" lon="-121.12171"/><trkpt lat="48.69316" lon="-121.12144"/><trkpt lat="48.69306" lon="-121.12134"/><trkpt lat="48.69293" lon="-121.12137"/><trkpt lat="48.69284" lon="-121.12128"/><trkpt lat="48.69279" lon="-121.12106"/><trkpt lat="48.6927" lon="-121.121"/><trkpt lat="48.69257" lon="-121.12112"/><trkpt lat="48.69244" lon="-121.12118"/><trkpt lat="48.6923" lon="-121.12117"/><trkpt lat="48.69201" lon="-121.12132"/><trkpt lat="48.69187" lon="-121.12133"/><trkpt lat="48.69166" lon="-121.12108"/><trkpt lat="48.69145" lon="-121.12094"/><trkpt lat="48.69133" lon="-121.12072"/><trkpt lat="48.69128" lon="-121.12066"/><trkpt lat="48.69112" lon="-121.12062"/><trkpt lat="48.69096" lon="-121.12066"/><trkpt lat="48.69096" lon="-121.12066"/><trkpt lat="48.69083" lon="-121.12074"/><trkpt lat="48.6906" lon="-121.12102"/><trkpt lat="48.69032" lon="-121.12122"/><trkpt lat="48.69018" lon="-121.12128"/><trkpt lat="48.68996" lon="-121.1217"/><trkpt lat="48.68984" lon="-121.12183"/><trkpt lat="48.68967" lon="-121.12191"/><trkpt lat="48.68942" lon="-121.12197"/><trkpt lat="48.68928" lon="-121.12212"/><trkpt lat="48.68905" lon="-121.12222"/><trkpt lat="48.68888" lon="-121.12241"/><trkpt lat="48.68876" lon="-121.12274"/><trkpt lat="48.68868" lon="-121.12289"/><trkpt lat="48.68862" lon="-121.12293"/><trkpt lat="48.68844" lon="-121.12293"/><trkpt lat="48.68833" lon="-121.12308"/><trkpt lat="48.68824" lon="-121.12311"/><trkpt lat="48.68813" lon="-121.12308"/><trkpt lat="48.68795" lon="-121.1231"/><trkpt lat="48.68774" lon="-121.12317"/><trkpt lat="48.68757" lon="-121.12318"/><trkpt lat="48.68746" lon="-121.12326"/><trkpt lat="48.68734" lon="-121.12346"/><trkpt lat="48.68719" lon="-121.12361"/><trkpt lat="48.68695" lon="-121.12406"/><trkpt lat="48.68648" lon="-121.12451"/><trkpt lat="48.68621" lon="-121.12463"/><trkpt lat="48.68613" lon="-121.12461"/><trkpt lat="48.68599" lon="-121.12436"/><trkpt lat="48.6858" lon="-121.12426"/><trkpt lat="48.6857" lon="-121.12425"/><trkpt lat="48.68557" lon="-121.12435"/><trkpt lat="48.68538" lon="-121.12442"/><trkpt lat="48.68515" lon="-121.12431"/><trkpt lat="48.6849" lon="-121.12425"/><trkpt lat="48.68475" lon="-121.12408"/><trkpt lat="48.68462" lon="-121.12404"/><trkpt lat="48.68455" lon="-121.12408"/><trkpt lat="48.68453" lon="-121.12413"/><trkpt lat="48.6845" lon="-121.12432"/><trkpt lat="48.68445" lon="-121.12441"/><trkpt lat="48.68425" lon="-121.1245"/><trkpt lat="48.68406" lon="-121.12465"/><trkpt lat="48.68371" lon="-121.12473"/><trkpt lat="48.68359" lon="-121.12509"/><trkpt lat="48.68351" lon="-121.12519"/><trkpt lat="48.6833" lon="-121.12528"/><trkpt lat="48.68314" lon="-121.12547"/><trkpt lat="48.68282" lon="-121.12575"/><trkpt lat="48.68276" lon="-121.12586"/><trkpt lat="48.68274" lon="-121.12608"/><trkpt lat="48.68271" lon="-121.12619"/><trkpt lat="48.68254" lon="-121.12644"/><trkpt lat="48.68242" lon="-121.12682"/><trkpt lat="48.68231" lon="-121.12706"/><trkpt lat="48.68218" lon="-121.12769"/><trkpt lat="48.6821" lon="-121.12843"/><trkpt lat="48.68205" lon="-121.12865"/><trkpt lat="48.68198" lon="-121.12872"/><trkpt lat="48.68181" lon="-121.12879"/><trkpt lat="48.6817" lon="-121.1289"/><trkpt lat="48.68156" lon="-121.12907"/><trkpt lat="48.68142" lon="-121.1293"/><trkpt lat="48.68124" lon="-121.12948"/><trkpt lat="48.68104" lon="-121.12972"/><trkpt lat="48.681" lon="-121.12981"/><trkpt lat="48.68102" lon="-121.13003"/><trkpt lat="48.68099" lon="-121.13011"/><trkpt lat="48.68079" lon="-121.13026"/><trkpt lat="48.68055" lon="-121.13051"/><trkpt lat="48.68044" lon="-121.13069"/><trkpt lat="48.6804" lon="-121.13087"/><trkpt lat="48.68014" lon="-121.13116"/><trkpt lat="48.67991" lon="-121.13158"/><trkpt lat="48.67955" lon="-121.13187"/><trkpt lat="48.67934" lon="-121.13208"/><trkpt lat="48.67931" lon="-121.13214"/><trkpt lat="48.67927" lon="-121.13232"/><trkpt lat="48.67928" lon="-121.13242"/><trkpt lat="48.6793" lon="-121.13247"/><trkpt lat="48.6797" lon="-121.13263"/><trkpt lat="48.67976" lon="-121.13268"/><trkpt lat="48.67987" lon="-121.1329"/><trkpt lat="48.67991" lon="-121.13323"/><trkpt lat="48.67986" lon="-121.13352"/><trkpt lat="48.67988" lon="-121.13389"/><trkpt lat="48.67983" lon="-121.13398"/><trkpt lat="48.67951" lon="-121.13411"/><trkpt lat="48.67944" lon="-121.13421"/><trkpt lat="48.67935" lon="-121.13444"/><trkpt lat="48.67921" lon="-121.13496"/><trkpt lat="48.67916" lon="-121.13506"/><trkpt lat="48.67901" lon="-121.13525"/><trkpt lat="48.67901" lon="-121.13525"/><trkpt lat="48.67896" lon="-121.13547"/><trkpt lat="48.6789" lon="-121.1356"/><trkpt lat="48.67882" lon="-121.13568"/><trkpt lat="48.67858" lon="-121.13578"/><trkpt lat="48.67854" lon="-121.13582"/><trkpt lat="48.6783" lon="-121.13617"/><trkpt lat="48.67805" lon="-121.13664"/><trkpt lat="48.6774" lon="-121.13732"/><trkpt lat="48.67736760537022" lon="-121.1373401070116"/><trkpt lat="48.65650019559015" lon="-121.15207672119142"/><trkpt lat="48.63948812510764" lon="-121.1452102661133"/><trkpt lat="48.62110864256238" lon="-121.15173339843751"/><trkpt lat="48.59829516320994" lon="-121.16804122924806"/><trkpt lat="48.594662215407716" lon="-121.17756843566896"/><trkpt lat="48.595286646903844" lon="-121.18494987487794"/><trkpt lat="48.5863167992396" lon="-121.18967056274415"/><trkpt lat="48.58143380786188" lon="-121.18443489074708"/><trkpt lat="48.57518743359429" lon="-121.18469238281251"/><trkpt lat="48.56195392821208" lon="-121.15413665771486"/><trkpt lat="48.55354629792524" lon="-121.12117767333986"/><trkpt lat="48.54956922928439" lon="-121.11431121826173"/><trkpt lat="48.53519236021767" lon="-121.12349510192873"/><trkpt lat="48.535125240020555" lon="-121.1233611542949"/><trkpt lat="48.5351" lon="-121.12339"/><trkpt lat="48.53495" lon="-121.12366"/><trkpt lat="48.5346" lon="-121.12415"/><trkpt lat="48.53419" lon="-121.12452"/><trkpt lat="48.53412" lon="-121.12456"/><trkpt lat="48.53387" lon="-121.12454"/><trkpt lat="48.53369" lon="-121.12458"/><trkpt lat="48.53356" lon="-121.12457"/><trkpt lat="48.53344" lon="-121.12441"/><trkpt lat="48.53334" lon="-121.1244"/><trkpt lat="48.53295" lon="-121.12455"/><trkpt lat="48.53237" lon="-121.12471"/><trkpt lat="48.53177" lon="-121.1249"/><trkpt lat="48.53116" lon="-121.12504"/><trkpt lat="48.53116" lon="-121.12504"/><trkpt lat="48.53056" lon="-121.12517"/><trkpt lat="48.52997" lon="-121.12542"/><trkpt lat="48.5296" lon="-121.12547"/><trkpt lat="48.52943" lon="-121.12557"/><trkpt lat="48.52911" lon="-121.12559"/><trkpt lat="48.52865" lon="-121.12571"/><trkpt lat="48.52845" lon="-121.12573"/><trkpt lat="48.528" lon="-121.12568"/><trkpt lat="48.52748" lon="-121.12544"/><trkpt lat="48.52739" lon="-121.12536"/><trkpt lat="48.52695" lon="-121.12476"/><trkpt lat="48.52674" lon="-121.12433"/><trkpt lat="48.52662" lon="-121.12417"/><trkpt lat="48.52593" lon="-121.12353"/><trkpt lat="48.52571" lon="-121.12329"/><trkpt lat="48.5254" lon="-121.12304"/><trkpt lat="48.52526" lon="-121.12295"/><trkpt lat="48.52464" lon="-121.12269"/><trkpt lat="48.52458" lon="-121.12265"/><trkpt lat="48.52445" lon="-121.1225"/><trkpt lat="48.52439" lon="-121.12246"/><trkpt lat="48.52421" lon="-121.12257"/><trkpt lat="48.52411" lon="-121.12256"/><trkpt lat="48.52384" lon="-121.12243"/><trkpt lat="48.52375" lon="-121.12232"/><trkpt lat="48.52358" lon="-121.12201"/><trkpt lat="48.52305" lon="-121.12148"/><trkpt lat="48.52277" lon="-121.12144"/><trkpt lat="48.52219" lon="-121.12115"/><trkpt lat="48.52212" lon="-121.12115"/><trkpt lat="48.52199" lon="-121.12123"/><trkpt lat="48.52187" lon="-121.12123"/><trkpt lat="48.52158" lon="-121.12115"/><trkpt lat="48.52118" lon="-121.12112"/><trkpt lat="48.52093" lon="-121.12093"/><trkpt lat="48.52079" lon="-121.12086"/><trkpt lat="48.52021" lon="-121.12078"/><trkpt lat="48.5199" lon="-121.12048"/><trkpt lat="48.51981" lon="-121.12044"/><trkpt lat="48.51938" lon="-121.12058"/><trkpt lat="48.51925" lon="-121.12059"/><trkpt lat="48.51898" lon="-121.12045"/><trkpt lat="48.51872" lon="-121.12046"/><trkpt lat="48.51851" lon="-121.12038"/><trkpt lat="48.51833" lon="-121.12037"/><trkpt lat="48.51821" lon="-121.12041"/><trkpt lat="48.51774" lon="-121.12066"/><trkpt lat="48.51702" lon="-121.12074"/><trkpt lat="48.51669" lon="-121.12061"/><trkpt lat="48.51669" lon="-121.12061"/><trkpt lat="48.51666" lon="-121.12055"/><trkpt lat="48.51666" lon="-121.1205"/><trkpt lat="48.51669" lon="-121.12036"/><trkpt lat="48.51674" lon="-121.12031"/><trkpt lat="48.51678" lon="-121.1201"/><trkpt lat="48.51686" lon="-121.11996"/><trkpt lat="48.51687" lon="-121.11967"/><trkpt lat="48.51692" lon="-121.11948"/><trkpt lat="48.51691" lon="-121.11913"/><trkpt lat="48.51687" lon="-121.11899"/><trkpt lat="48.51676" lon="-121.11878"/><trkpt lat="48.51676" lon="-121.11878"/><trkpt lat="48.5166" lon="-121.1188"/><trkpt lat="48.5166" lon="-121.1188"/><trkpt lat="48.51653" lon="-121.11877"/><trkpt lat="48.5164" lon="-121.11858"/><trkpt lat="48.51629" lon="-121.11848"/><trkpt lat="48.51623" lon="-121.11846"/><trkpt lat="48.51604" lon="-121.11862"/><trkpt lat="48.51595" lon="-121.11867"/><trkpt lat="48.51584" lon="-121.11861"/><trkpt lat="48.51571" lon="-121.11836"/><trkpt lat="48.51566" lon="-121.11831"/><trkpt lat="48.51546" lon="-121.11836"/><trkpt lat="48.51525" lon="-121.11833"/><trkpt lat="48.51504" lon="-121.11835"/><trkpt lat="48.51481" lon="-121.11848"/><trkpt lat="48.5147" lon="-121.11851"/><trkpt lat="48.51461" lon="-121.11849"/><trkpt lat="48.51446" lon="-121.11837"/><trkpt lat="48.51423" lon="-121.11835"/><trkpt lat="48.51415" lon="-121.11829"/><trkpt lat="48.51408" lon="-121.11818"/><trkpt lat="48.51399" lon="-121.11815"/><trkpt lat="48.5138" lon="-121.11825"/><trkpt lat="48.5138" lon="-121.11825"/><trkpt lat="48.51364" lon="-121.11834"/><trkpt lat="48.51347" lon="-121.11837"/><trkpt lat="48.51328" lon="-121.11828"/><trkpt lat="48.51316" lon="-121.11813"/><trkpt lat="48.51299" lon="-121.11799"/><trkpt lat="48.51276" lon="-121.11786"/><trkpt lat="48.51237" lon="-121.11757"/><trkpt lat="48.51224" lon="-121.11742"/><trkpt lat="48.51205" lon="-121.11746"/><trkpt lat="48.5119" lon="-121.11769"/><trkpt lat="48.51175" lon="-121.11786"/><trkpt lat="48.51158" lon="-121.11786"/><trkpt lat="48.51143" lon="-121.11778"/><trkpt lat="48.51131" lon="-121.11775"/><trkpt lat="48.51112" lon="-121.11781"/><trkpt lat="48.51093" lon="-121.11778"/><trkpt lat="48.51092" lon="-121.11752"/><trkpt lat="48.51084" lon="-121.11743"/><trkpt lat="48.51068" lon="-121.11752"/><trkpt lat="48.51065" lon="-121.11781"/><trkpt lat="48.51069" lon="-121.11816"/><trkpt lat="48.5106" lon="-121.11822"/><trkpt lat="48.51043" lon="-121.11809"/><trkpt lat="48.51033" lon="-121.11807"/><trkpt lat="48.5102" lon="-121.1183"/><trkpt lat="48.51002" lon="-121.11847"/><trkpt lat="48.50925" lon="-121.11856"/><trkpt lat="48.50899" lon="-121.11866"/><trkpt lat="48.50867" lon="-121.11857"/><trkpt lat="48.50825" lon="-121.1184"/><trkpt lat="48.50796" lon="-121.11831"/><trkpt lat="48.50767" lon="-121.1183"/><trkpt lat="48.50731" lon="-121.11856"/><trkpt lat="48.50711" lon="-121.11863"/><trkpt lat="48.50681" lon="-121.11857"/><trkpt lat="48.50648" lon="-121.11882"/><trkpt lat="48.5063" lon="-121.11867"/><trkpt lat="48.50615" lon="-121.11883"/><trkpt lat="48.50605" lon="-121.11901"/><trkpt lat="48.50583" lon="-121.11928"/><trkpt lat="48.50563" lon="-121.11942"/><trkpt lat="48.50535" lon="-121.11955"/><trkpt lat="48.50517" lon="-121.11975"/><trkpt lat="48.50494" lon="-121.11991"/><trkpt lat="48.50447" lon="-121.12"/><trkpt lat="48.50435" lon="-121.11981"/><trkpt lat="48.50422" lon="-121.1195"/><trkpt lat="48.504" lon="-121.11927"/><trkpt lat="48.50385" lon="-121.11926"/><trkpt lat="48.50367" lon="-121.11934"/><trkpt lat="48.50342" lon="-121.11954"/><trkpt lat="48.50323" lon="-121.11946"/><trkpt lat="48.50306" lon="-121.11924"/><trkpt lat="48.50291" lon="-121.1191"/><trkpt lat="48.50267" lon="-121.11913"/><trkpt lat="48.50243" lon="-121.11928"/><trkpt lat="48.50214" lon="-121.11922"/><trkpt lat="48.50205" lon="-121.11916"/><trkpt lat="48.50205" lon="-121.11916"/><trkpt lat="48.50185" lon="-121.11902"/><trkpt lat="48.50149" lon="-121.11913"/><trkpt lat="48.50111" lon="-121.11899"/><trkpt lat="48.50095" lon="-121.11918"/><trkpt lat="48.50071" lon="-121.11924"/><trkpt lat="48.50011" lon="-121.11962"/><trkpt lat="48.4998" lon="-121.1196"/><trkpt lat="48.49953" lon="-121.11991"/><trkpt lat="48.49924" lon="-121.12004"/><trkpt lat="48.49907" lon="-121.12035"/><trkpt lat="48.49875" lon="-121.12052"/><trkpt lat="48.49842" lon="-121.12057"/><trkpt lat="48.49801" lon="-121.12072"/><trkpt lat="48.49772" lon="-121.12091"/><trkpt lat="48.49752" lon="-121.12078"/><trkpt lat="48.49721" lon="-121.12102"/><trkpt lat="48.49688" lon="-121.12145"/><trkpt lat="48.49651" lon="-121.12172"/><trkpt lat="48.49626" lon="-121.12202"/><trkpt lat="48.49602" lon="-121.12192"/><trkpt lat="48.49577" lon="-121.1219"/><trkpt lat="48.49547" lon="-121.12206"/><trkpt lat="48.49525" lon="-121.12209"/><trkpt lat="48.4951" lon="-121.12207"/><trkpt lat="48.49484" lon="-121.12237"/><trkpt lat="48.49469" lon="-121.12239"/><trkpt lat="48.49446" lon="-121.12234"/><trkpt lat="48.49432" lon="-121.12248"/><trkpt lat="48.49414" lon="-121.12276"/><trkpt lat="48.49347" lon="-121.12313"/><trkpt lat="48.49324" lon="-121.12316"/><trkpt lat="48.49313" lon="-121.12334"/><trkpt lat="48.49274" lon="-121.12337"/><trkpt lat="48.49274" lon="-121.12337"/><trkpt lat="48.49274" lon="-121.12337"/><trkpt lat="48.49277163581763" lon="-121.12135321662637"/><trkpt lat="48.49277163582026" lon="-121.12135321662637"/><trkpt lat="48.49278" lon="-121.12082"/><trkpt lat="48.49278" lon="-121.11798"/><trkpt lat="48.49261" lon="-121.11517"/><trkpt lat="48.4924" lon="-121.11339"/><trkpt lat="48.49236" lon="-121.11328"/><trkpt lat="48.49236" lon="-121.11328"/><trkpt lat="48.4919" lon="-121.11193"/><trkpt lat="48.49166" lon="-121.11112"/><trkpt lat="48.49153" lon="-121.11057"/><trkpt lat="48.49144" lon="-121.1099"/><trkpt lat="48.49146" lon="-121.10932"/><trkpt lat="48.49156" lon="-121.10881"/><trkpt lat="48.49172" lon="-121.10846"/><trkpt lat="48.49191" lon="-121.1082"/><trkpt lat="48.49213" lon="-121.10772"/><trkpt lat="48.49217" lon="-121.10734"/><trkpt lat="48.49216" lon="-121.1071"/><trkpt lat="48.4918" lon="-121.10485"/><trkpt lat="48.49161" lon="-121.10418"/><trkpt lat="48.49095" lon="-121.10214"/><trkpt lat="48.4902" lon="-121.0993"/><trkpt lat="48.49015" lon="-121.09891"/><trkpt lat="48.49018" lon="-121.09858"/><trkpt lat="48.49037" lon="-121.09832"/><trkpt lat="48.49068" lon="-121.09883"/><trkpt lat="48.49078" lon="-121.09883"/><trkpt lat="48.49082" lon="-121.09875"/><trkpt lat="48.4908" lon="-121.0985"/><trkpt lat="48.49057" lon="-121.09753"/><trkpt lat="48.49043" lon="-121.09637"/><trkpt lat="48.49031" lon="-121.09585"/><trkpt lat="48.49003" lon="-121.09512"/><trkpt lat="48.48998" lon="-121.09467"/><trkpt lat="48.49007" lon="-121.09304"/><trkpt lat="48.49002" lon="-121.09264"/><trkpt lat="48.48991" lon="-121.09222"/><trkpt lat="48.48993" lon="-121.09131"/><trkpt lat="48.48993" lon="-121.09131"/><trkpt lat="48.48993" lon="-121.09126"/><trkpt lat="48.48986" lon="-121.09111"/><trkpt lat="48.48926" lon="-121.09018"/><trkpt lat="48.4892" lon="-121.08999"/><trkpt lat="48.48922" lon="-121.08933"/><trkpt lat="48.48921" lon="-121.08888"/><trkpt lat="48.48906" lon="-121.08831"/><trkpt lat="48.48874" lon="-121.08755"/><trkpt lat="48.48817" lon="-121.08588"/><trkpt lat="48.48795" lon="-121.08551"/><trkpt lat="48.48749" lon="-121.08513"/><trkpt lat="48.48749" lon="-121.08513"/><trkpt lat="48.48684" lon="-121.08441"/><trkpt lat="48.4866" lon="-121.08422"/><trkpt lat="48.48616" lon="-121.08413"/><trkpt lat="48.48589" lon="-121.08402"/><trkpt lat="48.48481" lon="-121.08312"/><trkpt lat="48.48465" lon="-121.08309"/><trkpt lat="48.4845" lon="-121.08289"/><trkpt lat="48.48404" lon="-121.08246"/><trkpt lat="48.48375" lon="-121.08223"/><trkpt lat="48.4834" lon="-121.0818"/><trkpt lat="48.48291" lon="-121.08129"/><trkpt lat="48.48244" lon="-121.08083"/><trkpt lat="48.48233" lon="-121.08069"/><trkpt lat="48.48217" lon="-121.08058"/><trkpt lat="48.48166" lon="-121.08037"/><trkpt lat="48.48113" lon="-121.08004"/><trkpt lat="48.48055" lon="-121.07979"/><trkpt lat="48.48055" lon="-121.07979"/><trkpt lat="48.48055" lon="-121.07979"/><trkpt lat="48.48031" lon="-121.07972"/><trkpt lat="48.47977" lon="-121.07945"/><trkpt lat="48.47944" lon="-121.07917"/><trkpt lat="48.47915" lon="-121.07908"/><trkpt lat="48.47855" lon="-121.0787"/><trkpt lat="48.47841" lon="-121.07858"/><trkpt lat="48.4783" lon="-121.07837"/><trkpt lat="48.4781" lon="-121.07843"/><trkpt lat="48.47792" lon="-121.0784"/><trkpt lat="48.47712" lon="-121.0781"/><trkpt lat="48.47678" lon="-121.07775"/><trkpt lat="48.4764" lon="-121.07746"/><trkpt lat="48.47615" lon="-121.07749"/><trkpt lat="48.47591" lon="-121.07743"/><trkpt lat="48.47541" lon="-121.07753"/><trkpt lat="48.47513" lon="-121.07711"/><trkpt lat="48.47469" lon="-121.07685"/><trkpt lat="48.47452" lon="-121.07664"/><trkpt lat="48.47455" lon="-121.07636"/><trkpt lat="48.47478" lon="-121.07626"/><trkpt lat="48.47529" lon="-121.07639"/><trkpt lat="48.4758" lon="-121.07636"/><trkpt lat="48.47597" lon="-121.07629"/><trkpt lat="48.4761" lon="-121.07608"/><trkpt lat="48.47609" lon="-121.07581"/><trkpt lat="48.47592" lon="-121.07568"/><trkpt lat="48.47571" lon="-121.07568"/><trkpt lat="48.47561" lon="-121.07561"/><trkpt lat="48.47561" lon="-121.07561"/><trkpt lat="48.4756" lon="-121.07547"/><trkpt lat="48.47556" lon="-121.0753"/><trkpt lat="48.47547" lon="-121.07519"/><trkpt lat="48.47547" lon="-121.07519"/><trkpt lat="48.47547" lon="-121.07519"/><trkpt lat="48.475391139692874" lon="-121.07501913600123"/><trkpt lat="48.4754" lon="-121.07501"/><trkpt lat="48.47552" lon="-121.07496"/><trkpt lat="48.47566" lon="-121.0751"/><trkpt lat="48.47583" lon="-121.07517"/><trkpt lat="48.47598" lon="-121.0751"/><trkpt lat="48.47598" lon="-121.07491"/><trkpt lat="48.47587" lon="-121.07483"/><trkpt lat="48.47587" lon="-121.07451"/><trkpt lat="48.47582" lon="-121.07432"/><trkpt lat="48.47565" lon="-121.0743"/><trkpt lat="48.47531" lon="-121.07433"/><trkpt lat="48.47514" lon="-121.07425"/><trkpt lat="48.47496" lon="-121.07397"/><trkpt lat="48.47526" lon="-121.07405"/><trkpt lat="48.47558" lon="-121.07381"/><trkpt lat="48.47579" lon="-121.07381"/><trkpt lat="48.47553" lon="-121.07361"/><trkpt lat="48.47525" lon="-121.07354"/><trkpt lat="48.47598" lon="-121.0734"/><trkpt lat="48.47624" lon="-121.07328"/><trkpt lat="48.47693" lon="-121.07361"/><trkpt lat="48.47666" lon="-121.07326"/><trkpt lat="48.47621" lon="-121.07298"/><trkpt lat="48.47593" lon="-121.07293"/><trkpt lat="48.47565" lon="-121.07267"/><trkpt lat="48.47602" lon="-121.07276"/><trkpt lat="48.4763" lon="-121.07274"/><trkpt lat="48.47659" lon="-121.07285"/><trkpt lat="48.47688" lon="-121.07284"/><trkpt lat="48.47716" lon="-121.07302"/><trkpt lat="48.47765" lon="-121.07341"/><trkpt lat="48.47753" lon="-121.07319"/><trkpt lat="48.47633" lon="-121.07195"/><trkpt lat="48.47754" lon="-121.07263"/><trkpt lat="48.47707" lon="-121.07222"/><trkpt lat="48.47664" lon="-121.07162"/><trkpt lat="48.47723" lon="-121.07198"/><trkpt lat="48.47691" lon="-121.07139"/><trkpt lat="48.4777" lon="-121.07189"/><trkpt lat="48.47787" lon="-121.07157"/><trkpt lat="48.47808" lon="-121.07159"/><trkpt lat="48.47841" lon="-121.07175"/><trkpt lat="48.4782" lon="-121.07147"/><trkpt lat="48.47794" lon="-121.07131"/><trkpt lat="48.47766" lon="-121.07132"/><trkpt lat="48.47743" lon="-121.07122"/><trkpt lat="48.47724" lon="-121.07084"/><trkpt lat="48.47758" lon="-121.07109"/><trkpt lat="48.47801" lon="-121.07095"/><trkpt lat="48.47867" lon="-121.07117"/><trkpt lat="48.47796" lon="-121.07055"/><trkpt lat="48.47756" lon="-121.0704"/><trkpt lat="48.47779" lon="-121.07031"/><trkpt lat="48.47803" lon="-121.07028"/><trkpt lat="48.47778" lon="-121.07007"/><trkpt lat="48.47757" lon="-121.07002"/><trkpt lat="48.47735" lon="-121.06977"/><trkpt lat="48.47782" lon="-121.06973"/><trkpt lat="48.47809" lon="-121.06988"/><trkpt lat="48.47823" lon="-121.06981"/><trkpt lat="48.47814" lon="-121.06967"/><trkpt lat="48.47794" lon="-121.06954"/><trkpt lat="48.47776" lon="-121.06934"/><trkpt lat="48.47776" lon="-121.06934"/><trkpt lat="48.47766" lon="-121.06922"/><trkpt lat="48.47821" lon="-121.06925"/><trkpt lat="48.47859" lon="-121.06911"/><trkpt lat="48.47899" lon="-121.06906"/><trkpt lat="48.47841" lon="-121.06874"/><trkpt lat="48.47901" lon="-121.06867"/><trkpt lat="48.47847" lon="-121.06847"/><trkpt lat="48.47899" lon="-121.06837"/><trkpt lat="48.47863" lon="-121.06822"/><trkpt lat="48.47836" lon="-121.06804"/><trkpt lat="48.47789" lon="-121.06801"/><trkpt lat="48.47808" lon="-121.06787"/><trkpt lat="48.47758" lon="-121.06777"/><trkpt lat="48.47732" lon="-121.06764"/><trkpt lat="48.47772" lon="-121.06758"/><trkpt lat="48.47792" lon="-121.06745"/><trkpt lat="48.47762" lon="-121.06741"/><trkpt lat="48.47732" lon="-121.06724"/><trkpt lat="48.47691" lon="-121.06687"/><trkpt lat="48.47673" lon="-121.06661"/><trkpt lat="48.47695" lon="-121.06673"/><trkpt lat="48.47717" lon="-121.06677"/><trkpt lat="48.47741" lon="-121.06687"/><trkpt lat="48.47799" lon="-121.06678"/><trkpt lat="48.47756" lon="-121.06659"/><trkpt lat="48.47721" lon="-121.06638"/><trkpt lat="48.47698" lon="-121.06613"/><trkpt lat="48.4768" lon="-121.06579"/><trkpt lat="48.47662" lon="-121.06565"/><trkpt lat="48.4765" lon="-121.06544"/><trkpt lat="48.47622" lon="-121.06522"/><trkpt lat="48.47657" lon="-121.06535"/><trkpt lat="48.4768" lon="-121.06552"/><trkpt lat="48.47748" lon="-121.06583"/><trkpt lat="48.47795" lon="-121.06573"/><trkpt lat="48.47769" lon="-121.06565"/><trkpt lat="48.47752" lon="-121.06556"/><trkpt lat="48.47713" lon="-121.06521"/><trkpt lat="48.47701" lon="-121.06508"/><trkpt lat="48.47683" lon="-121.06481"/><trkpt lat="48.47672" lon="-121.06473"/><trkpt lat="48.47641" lon="-121.06463"/><trkpt lat="48.47566" lon="-121.06412"/><trkpt lat="48.47507" lon="-121.0634"/><trkpt lat="48.47492" lon="-121.06324"/><trkpt lat="48.47473" lon="-121.06312"/><trkpt lat="48.47442" lon="-121.063"/><trkpt lat="48.47418" lon="-121.06261"/><trkpt lat="48.47412" lon="-121.0626"/><trkpt lat="48.47396" lon="-121.06266"/><trkpt lat="48.47385" lon="-121.06255"/><trkpt lat="48.47356" lon="-121.06216"/><trkpt lat="48.47334" lon="-121.06209"/><trkpt lat="48.47292" lon="-121.06207"/><trkpt lat="48.47292" lon="-121.06207"/><trkpt lat="48.47229" lon="-121.06197"/><trkpt lat="48.47216" lon="-121.06192"/><trkpt lat="48.47196" lon="-121.06166"/><trkpt lat="48.4716" lon="-121.06145"/><trkpt lat="48.47151" lon="-121.06118"/><trkpt lat="48.47137" lon="-121.06107"/><trkpt lat="48.4713" lon="-121.06085"/><trkpt lat="48.47109" lon="-121.06054"/><trkpt lat="48.47098" lon="-121.06046"/><trkpt lat="48.47048" lon="-121.06035"/><trkpt lat="48.47006" lon="-121.05998"/><trkpt lat="48.4697" lon="-121.05975"/><trkpt lat="48.4692" lon="-121.05937"/><trkpt lat="48.46908" lon="-121.05933"/><trkpt lat="48.469" lon="-121.05934"/><trkpt lat="48.46876" lon="-121.05942"/><trkpt lat="48.46866" lon="-121.05937"/><trkpt lat="48.46854" lon="-121.05911"/><trkpt lat="48.46846" lon="-121.0591"/><trkpt lat="48.46842" lon="-121.0592"/><trkpt lat="48.46828" lon="-121.05938"/><trkpt lat="48.46822" lon="-121.05942"/><trkpt lat="48.46809802225227" lon="-121.05944523677539"/><trkpt lat="48.46809802245421" lon="-121.05944523677539"/><trkpt lat="48.46793" lon="-121.05948"/><trkpt lat="48.46777" lon="-121.05944"/><trkpt lat="48.46771" lon="-121.05937"/><trkpt lat="48.46766" lon="-121.05927"/><trkpt lat="48.46763" lon="-121.05906"/><trkpt lat="48.46763" lon="-121.05906"/><trkpt lat="48.467479716670404" lon="-121.05924948767644"/><trkpt lat="48.467479716670404" lon="-121.05924948767644"/><trkpt lat="48.4674" lon="-121.05935"/><trkpt lat="48.46732" lon="-121.05938"/><trkpt lat="48.46729" lon="-121.05949"/><trkpt lat="48.46729" lon="-121.05963"/><trkpt lat="48.46725" lon="-121.05974"/><trkpt lat="48.46718" lon="-121.05979"/><trkpt lat="48.46703" lon="-121.0598"/><trkpt lat="48.46674" lon="-121.05992"/><trkpt lat="48.46667" lon="-121.05986"/><trkpt lat="48.46649" lon="-121.05988"/><trkpt lat="48.46632" lon="-121.06002"/><trkpt lat="48.46604" lon="-121.05984"/><trkpt lat="48.46596" lon="-121.05982"/><trkpt lat="48.46567" lon="-121.05983"/><trkpt lat="48.46509" lon="-121.05971"/><trkpt lat="48.46469" lon="-121.05966"/><trkpt lat="48.46434" lon="-121.05968"/><trkpt lat="48.46422" lon="-121.05957"/><trkpt lat="48.46403" lon="-121.05959"/><trkpt lat="48.46382" lon="-121.0595"/><trkpt lat="48.46361" lon="-121.05936"/><trkpt lat="48.46351" lon="-121.05934"/><trkpt lat="48.46323" lon="-121.05943"/><trkpt lat="48.46299" lon="-121.05946"/><trkpt lat="48.46288" lon="-121.05933"/><trkpt lat="48.46273" lon="-121.05927"/><trkpt lat="48.4624" lon="-121.0592"/><trkpt lat="48.46215" lon="-121.05921"/><trkpt lat="48.46207" lon="-121.05915"/><trkpt lat="48.46197" lon="-121.05893"/><trkpt lat="48.46192" lon="-121.05887"/><trkpt lat="48.46138" lon="-121.05851"/><trkpt lat="48.46123" lon="-121.05834"/><trkpt lat="48.46095" lon="-121.05812"/><trkpt lat="48.46029" lon="-121.05785"/><trkpt lat="48.46006" lon="-121.0578"/><trkpt lat="48.46004" lon="-121.05752"/><trkpt lat="48.46" lon="-121.05737"/><trkpt lat="48.45974" lon="-121.05663"/><trkpt lat="48.45987" lon="-121.05664"/><trkpt lat="48.45974" lon="-121.05646"/><trkpt lat="48.45954" lon="-121.05644"/><trkpt lat="48.45946" lon="-121.05627"/><trkpt lat="48.45931" lon="-121.05604"/><trkpt lat="48.45924" lon="-121.0557"/><trkpt lat="48.45907" lon="-121.05553"/><trkpt lat="48.45887" lon="-121.05553"/><trkpt lat="48.45865" lon="-121.05566"/><trkpt lat="48.45835" lon="-121.05546"/><trkpt lat="48.45835" lon="-121.05546"/><trkpt lat="48.45799" lon="-121.05529"/><trkpt lat="48.4576" lon="-121.05543"/><trkpt lat="48.45735" lon="-121.05531"/><trkpt lat="48.45662" lon="-121.05505"/><trkpt lat="48.45583" lon="-121.05521"/><trkpt lat="48.45557" lon="-121.05537"/><trkpt lat="48.45536" lon="-121.05538"/><trkpt lat="48.45503" lon="-121.05589"/><trkpt lat="48.4548" lon="-121.05604"/><trkpt lat="48.45311" lon="-121.0557"/><trkpt lat="48.452" lon="-121.05486"/><trkpt lat="48.45134" lon="-121.05468"/><trkpt lat="48.44938" lon="-121.05262"/><trkpt lat="48.44904" lon="-121.05245"/><trkpt lat="48.44839" lon="-121.05245"/><trkpt lat="48.44732" lon="-121.05144"/><trkpt lat="48.44655" lon="-121.0513"/><trkpt lat="48.44559" lon="-121.05026"/><trkpt lat="48.44489" lon="-121.04991"/><trkpt lat="48.44441" lon="-121.04939"/><trkpt lat="48.44386" lon="-121.04907"/><trkpt lat="48.44384" lon="-121.04883"/><trkpt lat="48.44378" lon="-121.04883"/><trkpt lat="48.44378" lon="-121.04883"/><trkpt lat="48.44345" lon="-121.04882"/><trkpt lat="48.44324" lon="-121.04821"/><trkpt lat="48.44225" lon="-121.04758"/><trkpt lat="48.44212" lon="-121.04736"/><trkpt lat="48.44212" lon="-121.04736"/><trkpt lat="48.44191" lon="-121.04704"/><trkpt lat="48.4413" lon="-121.04661"/><trkpt lat="48.44023" lon="-121.04637"/><trkpt lat="48.43971" lon="-121.04617"/><trkpt lat="48.43916" lon="-121.04631"/><trkpt lat="48.43842" lon="-121.04631"/><trkpt lat="48.43779" lon="-121.04593"/><trkpt lat="48.4372" lon="-121.04516"/><trkpt lat="48.43699" lon="-121.04519"/><trkpt lat="48.43637" lon="-121.04474"/><trkpt lat="48.43573" lon="-121.04468"/><trkpt lat="48.43533" lon="-121.04498"/><trkpt lat="48.43474" lon="-121.04512"/><trkpt lat="48.43325" lon="-121.04591"/><trkpt lat="48.43292" lon="-121.04579"/><trkpt lat="48.43259" lon="-121.04609"/><trkpt lat="48.43211" lon="-121.04629"/><trkpt lat="48.43146" lon="-121.04689"/><trkpt lat="48.4315" lon="-121.04736"/><trkpt lat="48.4315" lon="-121.04736"/><trkpt lat="48.43156" lon="-121.04796"/><trkpt lat="48.43139" lon="-121.04846"/><trkpt lat="48.4311" lon="-121.04951"/><trkpt lat="48.43072" lon="-121.04977"/><trkpt lat="48.430360222157546" lon="-121.04908831566692"/><trkpt lat="48.43036022290176" lon="-121.0490883156669"/><trkpt lat="48.43015" lon="-121.04869"/><trkpt lat="48.42948" lon="-121.04848"/><trkpt lat="48.4292" lon="-121.04876"/><trkpt lat="48.4292" lon="-121.04876"/><trkpt lat="48.42916" lon="-121.04881"/><trkpt lat="48.42622" lon="-121.0475"/><trkpt lat="48.42583" lon="-121.04752"/><trkpt lat="48.42572" lon="-121.04736"/><trkpt lat="48.42572" lon="-121.04736"/><trkpt lat="48.4255" lon="-121.04708"/><trkpt lat="48.42519" lon="-121.04715"/><trkpt lat="48.42462" lon="-121.04677"/><trkpt lat="48.42371" lon="-121.04678"/><trkpt lat="48.42252" lon="-121.04718"/><trkpt lat="48.42238" lon="-121.04736"/><trkpt lat="48.42238" lon="-121.04736"/><trkpt lat="48.4215" lon="-121.04852"/><trkpt lat="48.42019" lon="-121.05003"/><trkpt lat="48.41986" lon="-121.05032"/><trkpt lat="48.41949" lon="-121.0502"/><trkpt lat="48.41915" lon="-121.05028"/><trkpt lat="48.41901" lon="-121.04985"/><trkpt lat="48.41823" lon="-121.04913"/><trkpt lat="48.41708" lon="-121.04869"/><trkpt lat="48.41651" lon="-121.04782"/><trkpt lat="48.41636" lon="-121.04736"/><trkpt lat="48.41636" lon="-121.04736"/><trkpt lat="48.41627" lon="-121.04708"/><trkpt lat="48.41583" lon="-121.04685"/><trkpt lat="48.4156" lon="-121.04605"/><trkpt lat="48.41462" lon="-121.04507"/><trkpt lat="48.41462" lon="-121.04507"/><trkpt lat="48.41436" lon="-121.0448"/><trkpt lat="48.41355" lon="-121.04422"/><trkpt lat="48.41187" lon="-121.04577"/><trkpt lat="48.41183" lon="-121.04685"/><trkpt lat="48.41144" lon="-121.04736"/><trkpt lat="48.41144" lon="-121.04736"/><trkpt lat="48.41142" lon="-121.0474"/><trkpt lat="48.41112" lon="-121.0474"/><trkpt lat="48.41087" lon="-121.04796"/><trkpt lat="48.41024" lon="-121.04766"/><trkpt lat="48.40975" lon="-121.04782"/><trkpt lat="48.4096" lon="-121.04891"/><trkpt lat="48.40997" lon="-121.05024"/><trkpt lat="48.40946" lon="-121.05185"/><trkpt lat="48.40984" lon="-121.05324"/><trkpt lat="48.4093" lon="-121.05479"/><trkpt lat="48.40797" lon="-121.05636"/><trkpt lat="48.40794" lon="-121.0573"/><trkpt lat="48.40766" lon="-121.05805"/><trkpt lat="48.40727" lon="-121.05847"/><trkpt lat="48.40674" lon="-121.05859"/><trkpt lat="48.40608" lon="-121.05972"/><trkpt lat="48.4056" lon="-121.05964"/><trkpt lat="48.40525" lon="-121.05982"/><trkpt lat="48.40482" lon="-121.05963"/><trkpt lat="48.40414" lon="-121.05969"/><trkpt lat="48.40322" lon="-121.05885"/><trkpt lat="48.40202" lon="-121.05936"/><trkpt lat="48.40146" lon="-121.05926"/><trkpt lat="48.40106" lon="-121.05823"/><trkpt lat="48.40003" lon="-121.05818"/><trkpt lat="48.40003" lon="-121.05818"/><trkpt lat="48.39896" lon="-121.05813"/><trkpt lat="48.39748" lon="-121.05752"/><trkpt lat="48.39623" lon="-121.05728"/><trkpt lat="48.39591" lon="-121.0569"/><trkpt lat="48.39484" lon="-121.05642"/><trkpt lat="48.3942" lon="-121.05652"/><trkpt lat="48.39413" lon="-121.05613"/><trkpt lat="48.3936" lon="-121.05587"/><trkpt lat="48.39302" lon="-121.05599"/><trkpt lat="48.39282" lon="-121.05573"/><trkpt lat="48.39241" lon="-121.05573"/><trkpt lat="48.39232" lon="-121.0564"/><trkpt lat="48.39178" lon="-121.05684"/><trkpt lat="48.39109" lon="-121.05791"/><trkpt lat="48.3904" lon="-121.05805"/><trkpt lat="48.39098" lon="-121.05934"/><trkpt lat="48.39158" lon="-121.06012"/><trkpt lat="48.3921" lon="-121.06169"/><trkpt lat="48.39381" lon="-121.06465"/><trkpt lat="48.39375" lon="-121.06554"/><trkpt lat="48.39344" lon="-121.06644"/><trkpt lat="48.39269" lon="-121.06646"/><trkpt lat="48.39118" lon="-121.06519"/><trkpt lat="48.3897" lon="-121.06306"/><trkpt lat="48.38839" lon="-121.06062"/><trkpt lat="48.3873" lon="-121.06004"/><trkpt lat="48.38544" lon="-121.05994"/><trkpt lat="48.38544" lon="-121.05994"/><trkpt lat="48.38314" lon="-121.05992"/><trkpt lat="48.38193" lon="-121.05934"/><trkpt lat="48.38011" lon="-121.057"/><trkpt lat="48.37879" lon="-121.05662"/><trkpt lat="48.37768" lon="-121.05581"/><trkpt lat="48.37697" lon="-121.05463"/><trkpt lat="48.37548" lon="-121.05189"/><trkpt lat="48.37503" lon="-121.05052"/><trkpt lat="48.37376" lon="-121.04961"/><trkpt lat="48.37285" lon="-121.0485"/><trkpt lat="48.3715459163483" lon="-121.04811428511711"/><trkpt lat="48.32732446448716" lon="-121.06272697448732"/><trkpt lat="48.308888618124726" lon="-121.04101181030275"/><trkpt lat="48.30500653837289" lon="-121.03122711181642"/><trkpt lat="48.308431918186294" lon="-121.01028442382814"/><trkpt lat="48.30671925701686" lon="-120.97578048706056"/><trkpt lat="48.31322706369955" lon="-120.95689773559572"/><trkpt lat="48.33685369807936" lon="-120.94007492065431"/><trkpt lat="48.33959230998774" lon="-120.90728759765626"/><trkpt lat="48.33967446872601" lon="-120.90745886284816"/><trkpt lat="48.33983" lon="-120.90729"/><trkpt lat="48.34017" lon="-120.90713"/><trkpt lat="48.34041" lon="-120.90685"/><trkpt lat="48.34057" lon="-120.90679"/><trkpt lat="48.34068" lon="-120.90666"/><trkpt lat="48.34096" lon="-120.90608"/><trkpt lat="48.34121" lon="-120.90582"/><trkpt lat="48.34165" lon="-120.90518"/><trkpt lat="48.34165" lon="-120.90518"/><trkpt lat="48.34189" lon="-120.90483"/><trkpt lat="48.34206" lon="-120.9045"/><trkpt lat="48.34232" lon="-120.90421"/><trkpt lat="48.34255" lon="-120.90357"/><trkpt lat="48.34264" lon="-120.90339"/><trkpt lat="48.34277" lon="-120.90326"/><trkpt lat="48.34292" lon="-120.90318"/><trkpt lat="48.34323" lon="-120.90336"/><trkpt lat="48.34355" lon="-120.90338"/><trkpt lat="48.34382" lon="-120.90353"/><trkpt lat="48.34412" lon="-120.90361"/><trkpt lat="48.34424" lon="-120.90368"/><trkpt lat="48.34436" lon="-120.90361"/><trkpt lat="48.34443" lon="-120.9034"/><trkpt lat="48.34439" lon="-120.90334"/><trkpt lat="48.34427" lon="-120.90285"/><trkpt lat="48.3443" lon="-120.90272"/><trkpt lat="48.34436" lon="-120.90264"/><trkpt lat="48.34473" lon="-120.90244"/><trkpt lat="48.34482" lon="-120.90231"/><trkpt lat="48.34509" lon="-120.90215"/><trkpt lat="48.34542" lon="-120.90181"/><trkpt lat="48.34588" lon="-120.90161"/><trkpt lat="48.34636" lon="-120.90075"/><trkpt lat="48.34647" lon="-120.90031"/><trkpt lat="48.34661" lon="-120.90012"/><trkpt lat="48.34666" lon="-120.89974"/><trkpt lat="48.34698" lon="-120.89917"/><trkpt lat="48.34716" lon="-120.89857"/><trkpt lat="48.34741" lon="-120.89799"/><trkpt lat="48.34828" lon="-120.89749"/><trkpt lat="48.34854" lon="-120.89728"/><trkpt lat="48.34879" lon="-120.89684"/><trkpt lat="48.34916" lon="-120.89648"/><trkpt lat="48.3495" lon="-120.89599"/><trkpt lat="48.34966" lon="-120.89556"/><trkpt lat="48.34987" lon="-120.89515"/><trkpt lat="48.35002" lon="-120.89476"/><trkpt lat="48.35055" lon="-120.8942"/><trkpt lat="48.3507" lon="-120.89355"/><trkpt lat="48.3507" lon="-120.89355"/><trkpt lat="48.35092" lon="-120.89273"/><trkpt lat="48.351" lon="-120.89233"/><trkpt lat="48.35114" lon="-120.89213"/><trkpt lat="48.3512" lon="-120.89189"/><trkpt lat="48.35138" lon="-120.89149"/><trkpt lat="48.35161" lon="-120.89149"/><trkpt lat="48.35182" lon="-120.8913"/><trkpt lat="48.35216" lon="-120.89092"/><trkpt lat="48.35235" lon="-120.89058"/><trkpt lat="48.35261" lon="-120.88969"/><trkpt lat="48.35278" lon="-120.88927"/><trkpt lat="48.35288" lon="-120.88884"/><trkpt lat="48.35305" lon="-120.88846"/><trkpt lat="48.35326" lon="-120.88816"/><trkpt lat="48.35327" lon="-120.88783"/><trkpt lat="48.35347" lon="-120.88755"/><trkpt lat="48.35359" lon="-120.88712"/><trkpt lat="48.35359" lon="-120.88692"/><trkpt lat="48.35365" lon="-120.88677"/><trkpt lat="48.35391" lon="-120.88649"/><trkpt lat="48.354" lon="-120.88541"/><trkpt lat="48.35416" lon="-120.88512"/><trkpt lat="48.35415" lon="-120.88497"/><trkpt lat="48.35428" lon="-120.88479"/><trkpt lat="48.35443" lon="-120.88425"/><trkpt lat="48.35441" lon="-120.88376"/><trkpt lat="48.35437" lon="-120.88361"/><trkpt lat="48.35442" lon="-120.88269"/><trkpt lat="48.35448" lon="-120.88257"/><trkpt lat="48.35465" lon="-120.88247"/><trkpt lat="48.35474" lon="-120.8823"/><trkpt lat="48.35478" lon="-120.88185"/><trkpt lat="48.35492" lon="-120.88144"/><trkpt lat="48.35505" lon="-120.88128"/><trkpt lat="48.35521" lon="-120.8809"/><trkpt lat="48.35555" lon="-120.88042"/><trkpt lat="48.35558" lon="-120.88021"/><trkpt lat="48.3558" lon="-120.87992"/><trkpt lat="48.35587" lon="-120.87968"/><trkpt lat="48.35597" lon="-120.87959"/><trkpt lat="48.35612" lon="-120.87914"/><trkpt lat="48.35625" lon="-120.87891"/><trkpt lat="48.35625" lon="-120.87891"/><trkpt lat="48.35673" lon="-120.87838"/><trkpt lat="48.35721" lon="-120.87761"/><trkpt lat="48.35773" lon="-120.87711"/><trkpt lat="48.35786" lon="-120.87708"/><trkpt lat="48.3581" lon="-120.87673"/><trkpt lat="48.35827" lon="-120.87638"/><trkpt lat="48.35839" lon="-120.87623"/><trkpt lat="48.35839" lon="-120.87603"/><trkpt lat="48.35858" lon="-120.87563"/><trkpt lat="48.3586" lon="-120.87547"/><trkpt lat="48.35868" lon="-120.87535"/><trkpt lat="48.35886" lon="-120.87528"/><trkpt lat="48.35916" lon="-120.87536"/><trkpt lat="48.35939" lon="-120.87514"/><trkpt lat="48.35983" lon="-120.87422"/><trkpt lat="48.36015" lon="-120.87413"/><trkpt lat="48.36028" lon="-120.874"/><trkpt lat="48.36062" lon="-120.87338"/><trkpt lat="48.36102" lon="-120.87292"/><trkpt lat="48.3612" lon="-120.87253"/><trkpt lat="48.36163" lon="-120.87205"/><trkpt lat="48.36197" lon="-120.87158"/><trkpt lat="48.36197" lon="-120.87158"/><trkpt lat="48.36204" lon="-120.87149"/><trkpt lat="48.36221" lon="-120.87107"/><trkpt lat="48.36222" lon="-120.87084"/><trkpt lat="48.36251" lon="-120.87017"/><trkpt lat="48.3627" lon="-120.8692"/><trkpt lat="48.36287" lon="-120.86882"/><trkpt lat="48.36298" lon="-120.86827"/><trkpt lat="48.36306" lon="-120.86816"/><trkpt lat="48.36321" lon="-120.86812"/><trkpt lat="48.36348" lon="-120.86762"/><trkpt lat="48.36356" lon="-120.86726"/><trkpt lat="48.36366" lon="-120.8671"/><trkpt lat="48.36413" lon="-120.86681"/><trkpt lat="48.36457" lon="-120.86621"/><trkpt lat="48.36462" lon="-120.86605"/><trkpt lat="48.36471" lon="-120.86592"/><trkpt lat="48.36476" lon="-120.86556"/><trkpt lat="48.36481" lon="-120.86545"/><trkpt lat="48.36482" lon="-120.86526"/><trkpt lat="48.36479" lon="-120.86509"/><trkpt lat="48.36484" lon="-120.86485"/><trkpt lat="48.36492" lon="-120.86472"/><trkpt lat="48.36505" lon="-120.86398"/><trkpt lat="48.36514" lon="-120.86379"/><trkpt lat="48.36518" lon="-120.86353"/><trkpt lat="48.36516" lon="-120.86262"/><trkpt lat="48.36533" lon="-120.86192"/><trkpt lat="48.3655" lon="-120.86152"/><trkpt lat="48.365525418408765" lon="-120.86135054394154"/><trkpt lat="48.3655254184174" lon="-120.86135054394155"/><trkpt lat="48.36556" lon="-120.86112"/><trkpt lat="48.36571" lon="-120.86098"/><trkpt lat="48.36601" lon="-120.86057"/><trkpt lat="48.36609" lon="-120.86038"/><trkpt lat="48.36612" lon="-120.86003"/><trkpt lat="48.36654" lon="-120.85921"/><trkpt lat="48.3667" lon="-120.8588"/><trkpt lat="48.36712" lon="-120.85839"/><trkpt lat="48.36775" lon="-120.858"/><trkpt lat="48.36782" lon="-120.8578"/><trkpt lat="48.36784" lon="-120.85715"/><trkpt lat="48.36813" lon="-120.85691"/><trkpt lat="48.36813" lon="-120.85669"/><trkpt lat="48.36825" lon="-120.85652"/><trkpt lat="48.36831" lon="-120.85629"/><trkpt lat="48.36824" lon="-120.85609"/><trkpt lat="48.36824" lon="-120.85589"/><trkpt lat="48.36819" lon="-120.85581"/><trkpt lat="48.36811" lon="-120.85581"/><trkpt lat="48.36809" lon="-120.85586"/><trkpt lat="48.36808" lon="-120.85518"/><trkpt lat="48.36815" lon="-120.85469"/><trkpt lat="48.36839" lon="-120.85405"/><trkpt lat="48.36848" lon="-120.8536"/><trkpt lat="48.36856" lon="-120.85349"/><trkpt lat="48.3686" lon="-120.85325"/><trkpt lat="48.36857" lon="-120.85251"/><trkpt lat="48.36836" lon="-120.85186"/><trkpt lat="48.36843" lon="-120.85148"/><trkpt lat="48.36868" lon="-120.85106"/><trkpt lat="48.36893" lon="-120.85075"/><trkpt lat="48.36916" lon="-120.85009"/><trkpt lat="48.36915" lon="-120.84973"/><trkpt lat="48.36921" lon="-120.84961"/><trkpt lat="48.36921" lon="-120.84961"/><trkpt lat="48.36925" lon="-120.84951"/><trkpt lat="48.36953" lon="-120.84913"/><trkpt lat="48.36995" lon="-120.84885"/><trkpt lat="48.37012" lon="-120.84869"/><trkpt lat="48.37022" lon="-120.84851"/><trkpt lat="48.37031" lon="-120.84853"/><trkpt lat="48.37049" lon="-120.84824"/><trkpt lat="48.3706" lon="-120.84822"/><trkpt lat="48.37085" lon="-120.84808"/><trkpt lat="48.37085" lon="-120.84808"/><trkpt lat="48.3712" lon="-120.84786"/><trkpt lat="48.37167" lon="-120.84774"/><trkpt lat="48.37217" lon="-120.84743"/><trkpt lat="48.3725" lon="-120.84684"/><trkpt lat="48.3726" lon="-120.84659"/><trkpt lat="48.37261" lon="-120.84636"/><trkpt lat="48.37251" lon="-120.8454"/><trkpt lat="48.37257" lon="-120.84521"/><trkpt lat="48.37288" lon="-120.84474"/><trkpt lat="48.37322" lon="-120.84452"/><trkpt lat="48.37337" lon="-120.84437"/><trkpt lat="48.37358" lon="-120.84372"/><trkpt lat="48.37378" lon="-120.84328"/><trkpt lat="48.37385" lon="-120.84293"/><trkpt lat="48.37403" lon="-120.84267"/><trkpt lat="48.37409" lon="-120.84243"/><trkpt lat="48.37438" lon="-120.84177"/><trkpt lat="48.37458" lon="-120.84094"/><trkpt lat="48.37475" lon="-120.84049"/><trkpt lat="48.37484" lon="-120.84005"/><trkpt lat="48.37516" lon="-120.83944"/><trkpt lat="48.3753" lon="-120.83873"/><trkpt lat="48.37528" lon="-120.83847"/><trkpt lat="48.37542" lon="-120.83828"/><trkpt lat="48.37549" lon="-120.83808"/><trkpt lat="48.37565" lon="-120.83793"/><trkpt lat="48.37571" lon="-120.83744"/><trkpt lat="48.37581" lon="-120.83723"/><trkpt lat="48.37583" lon="-120.83661"/><trkpt lat="48.37592" lon="-120.83706"/><trkpt lat="48.37585" lon="-120.83785"/><trkpt lat="48.37599" lon="-120.83854"/><trkpt lat="48.37617" lon="-120.83787"/><trkpt lat="48.37625" lon="-120.83701"/><trkpt lat="48.3763" lon="-120.83677"/><trkpt lat="48.37636" lon="-120.83673"/><trkpt lat="48.37637" lon="-120.83695"/><trkpt lat="48.37654" lon="-120.8377"/><trkpt lat="48.37663" lon="-120.83791"/><trkpt lat="48.37663" lon="-120.83818"/><trkpt lat="48.37676" lon="-120.83811"/><trkpt lat="48.37681" lon="-120.8377"/><trkpt lat="48.37691" lon="-120.83766"/><trkpt lat="48.37708" lon="-120.83809"/><trkpt lat="48.37705" lon="-120.83751"/><trkpt lat="48.37712" lon="-120.83701"/><trkpt lat="48.37709" lon="-120.83674"/><trkpt lat="48.37719" lon="-120.83683"/><trkpt lat="48.37722" lon="-120.83703"/><trkpt lat="48.37744" lon="-120.83749"/><trkpt lat="48.37746" lon="-120.83767"/><trkpt lat="48.37753" lon="-120.83745"/><trkpt lat="48.37751" lon="-120.83718"/><trkpt lat="48.37765" lon="-120.83591"/><trkpt lat="48.37775" lon="-120.83567"/><trkpt lat="48.37788" lon="-120.83573"/><trkpt lat="48.37792" lon="-120.83625"/><trkpt lat="48.37802" lon="-120.83649"/><trkpt lat="48.37818" lon="-120.83703"/><trkpt lat="48.37818" lon="-120.83703"/><trkpt lat="48.37831" lon="-120.83719"/><trkpt lat="48.37831" lon="-120.83719"/><trkpt lat="48.37843" lon="-120.83729"/><trkpt lat="48.37865" lon="-120.837"/><trkpt lat="48.37877" lon="-120.83702"/><trkpt lat="48.37866" lon="-120.83733"/><trkpt lat="48.3787" lon="-120.83749"/><trkpt lat="48.37895" lon="-120.83778"/><trkpt lat="48.37929" lon="-120.83885"/><trkpt lat="48.37941" lon="-120.83909"/><trkpt lat="48.37964" lon="-120.83935"/><trkpt lat="48.37979" lon="-120.83948"/><trkpt lat="48.37979" lon="-120.83948"/><trkpt lat="48.37991" lon="-120.83928"/><trkpt lat="48.38058" lon="-120.83906"/><trkpt lat="48.3806" lon="-120.83902"/><trkpt lat="48.38058" lon="-120.83895"/><trkpt lat="48.38045" lon="-120.83885"/><trkpt lat="48.38035" lon="-120.83864"/><trkpt lat="48.38035" lon="-120.83864"/><trkpt lat="48.38021" lon="-120.83835"/><trkpt lat="48.38021" lon="-120.83835"/><trkpt lat="48.37996" lon="-120.83793"/><trkpt lat="48.37996" lon="-120.83793"/><trkpt lat="48.37982" lon="-120.83772"/><trkpt lat="48.37971" lon="-120.83726"/><trkpt lat="48.37986" lon="-120.83661"/><trkpt lat="48.37985" lon="-120.83644"/><trkpt lat="48.37972" lon="-120.83608"/><trkpt lat="48.3797" lon="-120.83581"/><trkpt lat="48.37965" lon="-120.83489"/><trkpt lat="48.37966" lon="-120.83197"/><trkpt lat="48.37943" lon="-120.83014"/><trkpt lat="48.37931" lon="-120.82764"/><trkpt lat="48.37931" lon="-120.82764"/><trkpt lat="48.3791" lon="-120.82627"/><trkpt lat="48.37884" lon="-120.82503"/><trkpt lat="48.37882" lon="-120.8245"/><trkpt lat="48.37915" lon="-120.81903"/><trkpt lat="48.37925" lon="-120.81796"/><trkpt lat="48.37925" lon="-120.81796"/><trkpt lat="48.37925" lon="-120.81796"/><trkpt lat="48.37937" lon="-120.81718"/><trkpt lat="48.37974" lon="-120.81534"/><trkpt lat="48.38016" lon="-120.81279"/><trkpt lat="48.38034" lon="-120.81185"/><trkpt lat="48.38027" lon="-120.81035"/><trkpt lat="48.38004" lon="-120.80862"/><trkpt lat="48.38006" lon="-120.80845"/><trkpt lat="48.38019" lon="-120.80813"/><trkpt lat="48.3803" lon="-120.80775"/><trkpt lat="48.38025" lon="-120.80746"/><trkpt lat="48.38007" lon="-120.80694"/><trkpt lat="48.37988" lon="-120.8062"/><trkpt lat="48.37981" lon="-120.80566"/><trkpt lat="48.37981" lon="-120.80566"/><trkpt lat="48.37968" lon="-120.80502"/><trkpt lat="48.37936" lon="-120.80421"/><trkpt lat="48.37932" lon="-120.80399"/><trkpt lat="48.37932" lon="-120.80341"/><trkpt lat="48.37907" lon="-120.8017"/><trkpt lat="48.37882" lon="-120.79982"/><trkpt lat="48.37881" lon="-120.79927"/><trkpt lat="48.37876" lon="-120.79887"/><trkpt lat="48.37852" lon="-120.79843"/><trkpt lat="48.37835" lon="-120.79801"/><trkpt lat="48.37789" lon="-120.79615"/><trkpt lat="48.37752" lon="-120.79527"/><trkpt lat="48.37744" lon="-120.79499"/><trkpt lat="48.3774" lon="-120.79465"/><trkpt lat="48.3774" lon="-120.79219"/><trkpt lat="48.37734" lon="-120.7917"/><trkpt lat="48.37718" lon="-120.79127"/><trkpt lat="48.37643" lon="-120.79016"/><trkpt lat="48.37626" lon="-120.78981"/><trkpt lat="48.37619" lon="-120.78936"/><trkpt lat="48.37614346874199" lon="-120.78871101140139"/><trkpt lat="48.37614346874199" lon="-120.78871101140139"/><trkpt lat="48.376" lon="-120.78671"/><trkpt lat="48.37557" lon="-120.78423"/><trkpt lat="48.37551" lon="-120.78369"/><trkpt lat="48.37551" lon="-120.78369"/><trkpt lat="48.37543" lon="-120.78287"/><trkpt lat="48.37548" lon="-120.78215"/><trkpt lat="48.37595" lon="-120.77965"/><trkpt lat="48.3763" lon="-120.77894"/><trkpt lat="48.3765" lon="-120.77848"/><trkpt lat="48.37651" lon="-120.77799"/><trkpt lat="48.37636" lon="-120.77733"/><trkpt lat="48.37592" lon="-120.77644"/><trkpt lat="48.37539" lon="-120.77492"/><trkpt lat="48.3752" lon="-120.77454"/><trkpt lat="48.37483" lon="-120.77357"/><trkpt lat="48.3747" lon="-120.77299"/><trkpt lat="48.37434" lon="-120.77113"/><trkpt lat="48.37409" lon="-120.77028"/><trkpt lat="48.3737" lon="-120.76909"/><trkpt lat="48.37361" lon="-120.76872"/><trkpt lat="48.37342" lon="-120.76694"/><trkpt lat="48.37332" lon="-120.76658"/><trkpt lat="48.37316" lon="-120.76629"/><trkpt lat="48.37274" lon="-120.76597"/><trkpt lat="48.37201" lon="-120.76485"/><trkpt lat="48.37191" lon="-120.7646"/><trkpt lat="48.3718" lon="-120.76406"/><trkpt lat="48.37167" lon="-120.76271"/><trkpt lat="48.37164" lon="-120.76172"/><trkpt lat="48.37164" lon="-120.76172"/><trkpt lat="48.37163" lon="-120.76075"/><trkpt lat="48.37169" lon="-120.75971"/><trkpt lat="48.37183" lon="-120.75852"/><trkpt lat="48.37184" lon="-120.75752"/><trkpt lat="48.37199" lon="-120.75567"/><trkpt lat="48.37191" lon="-120.7551"/><trkpt lat="48.37171" lon="-120.75468"/><trkpt lat="48.37132" lon="-120.75435"/><trkpt lat="48.37085" lon="-120.75426"/><trkpt lat="48.37085" lon="-120.75426"/><trkpt lat="48.37049" lon="-120.75381"/><trkpt lat="48.36971" lon="-120.75173"/><trkpt lat="48.36885" lon="-120.74871"/><trkpt lat="48.36849" lon="-120.74788"/><trkpt lat="48.36712" lon="-120.74562"/><trkpt lat="48.36684" lon="-120.74509"/><trkpt lat="48.36684" lon="-120.74509"/><trkpt lat="48.36684" lon="-120.74509"/><trkpt lat="48.36611" lon="-120.74342"/><trkpt lat="48.36464" lon="-120.74104"/><trkpt lat="48.36421" lon="-120.73975"/><trkpt lat="48.36421" lon="-120.73975"/><trkpt lat="48.36403" lon="-120.73924"/><trkpt lat="48.36317" lon="-120.73814"/><trkpt lat="48.3622" lon="-120.73731"/><trkpt lat="48.36165" lon="-120.73634"/><trkpt lat="48.36068" lon="-120.73389"/><trkpt lat="48.36038" lon="-120.733"/><trkpt lat="48.36017" lon="-120.73205"/><trkpt lat="48.36001" lon="-120.73071"/><trkpt lat="48.35991" lon="-120.73018"/><trkpt lat="48.35972" lon="-120.72973"/><trkpt lat="48.35896" lon="-120.7287"/><trkpt lat="48.35857" lon="-120.72825"/><trkpt lat="48.35824" lon="-120.72782"/><trkpt lat="48.35774" lon="-120.72683"/><trkpt lat="48.35741" lon="-120.72594"/><trkpt lat="48.35705" lon="-120.72511"/><trkpt lat="48.35699" lon="-120.72481"/><trkpt lat="48.35697" lon="-120.72323"/><trkpt lat="48.35695448117431" lon="-120.72312654116215"/><trkpt lat="48.35695448118109" lon="-120.72312654116215"/><trkpt lat="48.35691" lon="-120.72283"/><trkpt lat="48.35678" lon="-120.72244"/><trkpt lat="48.35662" lon="-120.72222"/><trkpt lat="48.35625" lon="-120.72208"/><trkpt lat="48.35625" lon="-120.72208"/><trkpt lat="48.35561" lon="-120.72184"/><trkpt lat="48.35488" lon="-120.7214"/><trkpt lat="48.35488" lon="-120.7214"/><trkpt lat="48.35488" lon="-120.7214"/><trkpt lat="48.35397" lon="-120.72002"/><trkpt lat="48.3536" lon="-120.71937"/><trkpt lat="48.35308" lon="-120.71885"/><trkpt lat="48.35286" lon="-120.71849"/><trkpt lat="48.35233" lon="-120.71777"/><trkpt lat="48.35233" lon="-120.71777"/><trkpt lat="48.35194" lon="-120.7172"/><trkpt lat="48.35127" lon="-120.71656"/><trkpt lat="48.35095" lon="-120.71579"/><trkpt lat="48.35046" lon="-120.71529"/><trkpt lat="48.35018" lon="-120.71446"/><trkpt lat="48.34987" lon="-120.71394"/><trkpt lat="48.34929" lon="-120.71365"/><trkpt lat="48.34929" lon="-120.71365"/><trkpt lat="48.34907" lon="-120.71341"/><trkpt lat="48.34869" lon="-120.71319"/><trkpt lat="48.34827" lon="-120.71304"/><trkpt lat="48.34702" lon="-120.71174"/><trkpt lat="48.34558" lon="-120.7089"/><trkpt lat="48.34454" lon="-120.70735"/><trkpt lat="48.34439" lon="-120.70692"/><trkpt lat="48.34428" lon="-120.70673"/><trkpt lat="48.343760312453114" lon="-120.70627918670633"/><trkpt lat="48.343760312453114" lon="-120.70627918670633"/><trkpt lat="48.34345" lon="-120.70601"/><trkpt lat="48.34165" lon="-120.70435"/><trkpt lat="48.34165" lon="-120.70435"/><trkpt lat="48.341" lon="-120.70376"/><trkpt lat="48.341" lon="-120.70376"/><trkpt lat="48.341" lon="-120.70376"/><trkpt lat="48.34074" lon="-120.70315"/><trkpt lat="48.34061" lon="-120.70275"/><trkpt lat="48.3405" lon="-120.70233"/><trkpt lat="48.34044" lon="-120.70195"/><trkpt lat="48.3404" lon="-120.7016"/><trkpt lat="48.34042" lon="-120.70113"/><trkpt lat="48.34046" lon="-120.7007"/><trkpt lat="48.34048030415978" lon="-120.70030203846838"/><trkpt lat="48.34048165132093" lon="-120.70027563410987"/><trkpt lat="48.34051" lon="-120.69972"/><trkpt lat="48.34062" lon="-120.69931"/><trkpt lat="48.34072864407045" lon="-120.69911827516978"/><trkpt lat="48.34072864407045" lon="-120.69911827516978"/><trkpt lat="48.34079" lon="-120.69901"/><trkpt lat="48.34079" lon="-120.69901"/><trkpt lat="48.34084" lon="-120.69891"/><trkpt lat="48.34084" lon="-120.69891"/><trkpt lat="48.34094" lon="-120.69871"/><trkpt lat="48.3409" lon="-120.69845"/><trkpt lat="48.34067" lon="-120.69798"/><trkpt lat="48.34041" lon="-120.69758"/><trkpt lat="48.34031" lon="-120.69741"/><trkpt lat="48.34017" lon="-120.69698"/><trkpt lat="48.33994" lon="-120.69621"/><trkpt lat="48.33979" lon="-120.6959"/><trkpt lat="48.33972" lon="-120.6958"/><trkpt lat="48.33972" lon="-120.6958"/><trkpt lat="48.33836" lon="-120.69434"/><trkpt lat="48.33819" lon="-120.69421"/><trkpt lat="48.33809" lon="-120.69417"/><trkpt lat="48.33774015047197" lon="-120.694145010748"/><trkpt lat="48.33774015047197" lon="-120.694145010748"/><trkpt lat="48.33711" lon="-120.6941"/><trkpt lat="48.33662" lon="-120.69397"/><trkpt lat="48.3362" lon="-120.69357"/><trkpt lat="48.33582" lon="-120.69305"/><trkpt lat="48.33562" lon="-120.69288"/><trkpt lat="48.33548" lon="-120.69281"/><trkpt lat="48.33444" lon="-120.69256"/><trkpt lat="48.33381" lon="-120.69252"/><trkpt lat="48.33338" lon="-120.69267"/><trkpt lat="48.33264" lon="-120.69271"/><trkpt lat="48.33241" lon="-120.69264"/><trkpt lat="48.33223239251398" lon="-120.69254891923794"/><trkpt lat="48.33223239251398" lon="-120.69254891923794"/><trkpt lat="48.33163" lon="-120.69224"/><trkpt lat="48.33148" lon="-120.69213"/><trkpt lat="48.33077" lon="-120.69153"/><trkpt lat="48.33025" lon="-120.69093"/><trkpt lat="48.33003" lon="-120.6906"/><trkpt lat="48.32973" lon="-120.69007"/><trkpt lat="48.32947" lon="-120.68973"/><trkpt lat="48.32891" lon="-120.68906"/><trkpt lat="48.32816" lon="-120.68823"/><trkpt lat="48.32816" lon="-120.68823"/><trkpt lat="48.32808" lon="-120.6881"/><trkpt lat="48.32808" lon="-120.6881"/><trkpt lat="48.32803" lon="-120.68802"/><trkpt lat="48.32717" lon="-120.68706"/><trkpt lat="48.32704" lon="-120.68697"/><trkpt lat="48.32704" lon="-120.68697"/><trkpt lat="48.32639691499961" lon="-120.68653468145695"/><trkpt lat="48.32638288684739" lon="-120.6865262410169"/><trkpt lat="48.32393" lon="-120.68523"/><trkpt lat="48.32347" lon="-120.6849"/><trkpt lat="48.32332319334163" lon="-120.68475319334163"/><trkpt lat="48.32332319334163" lon="-120.68475319334163"/><trkpt lat="48.32327" lon="-120.6847"/><trkpt lat="48.3232" lon="-120.68452"/><trkpt lat="48.3232" lon="-120.68452"/><trkpt lat="48.3232" lon="-120.68452"/><trkpt lat="48.32319" lon="-120.68435"/><trkpt lat="48.32319" lon="-120.68435"/><trkpt lat="48.32319" lon="-120.68435"/><trkpt lat="48.32296" lon="-120.68398"/><trkpt lat="48.32259" lon="-120.68295"/><trkpt lat="48.32208" lon="-120.68088"/><trkpt lat="48.32195" lon="-120.68047"/></trkseg></trk></gpx>